start=new Date('2023-02-20T00:00:00.000Z').valueOf();
sats=[{"GP_ID":"226080464","MEAN_MOTION_DOT":"0.00005129","PERIAPSIS":"546.343","ELEMENT_SET_NO":"999","REV_AT_EPOCH":"10858","PERIOD":"95.591","RA_OF_ASC_NODE":"177.3850","OBJECT_ID":"2021-021Q","ARG_OF_PERICENTER":"85.9483","MEAN_MOTION":"15.06420969","EPOCH":"2023-02-19T17:31:31.244736","LAUNCH_DATE":"2021-03-14","BSTAR":"0.00036276000000","MEAN_ANOMALY":"274.1639","TIME_SYSTEM":"UTC","APOAPSIS":"547.955","ECCENTRICITY":"0.00011640","EPHEMERIS_TYPE":"0","RCS_SIZE":"LARGE","FILE":"3813111","NORAD_CAT_ID":"47874","REF_FRAME":"TEME","COUNTRY_CODE":"US","MEAN_MOTION_DDOT":"0.0000000000000","SITE":"AFETR","CENTER_NAME":"EARTH","SEMIMAJOR_AXIS":"6925.284","CLASSIFICATION_TYPE":"U","TLE_LINE1":"1 47874U 21021Q   23050.73022274  .00005129  00000-0  36276-3 0  9997","OBJECT_TYPE":"PAYLOAD","TLE_LINE2":"2 47874  53.0545 177.3850 0001164  85.9483 274.1639 15.06420969108580","DECAY_DATE":null,"INCLINATION":"53.0545","MEAN_ELEMENT_THEORY":"SGP4","OBJECT_NAME":"STARLINK-2330"},{"COUNTRY_CODE":"US","MEAN_MOTION_DDOT":"0.0000000000000","APOAPSIS":"547.965","ECCENTRICITY":"0.00012910","EPHEMERIS_TYPE":"0","RCS_SIZE":"LARGE","FILE":"3811187","NORAD_CAT_ID":"47875","REF_FRAME":"TEME","OBJECT_TYPE":"PAYLOAD","TLE_LINE1":"1 47875U 21021R   23050.64591296  .00013088  00000-0  89478-3 0  9998","TLE_LINE2":"2 47875  53.0517 232.7554 0001291  80.2347 279.8787 15.06446633107801","DECAY_DATE":null,"INCLINATION":"53.0517","MEAN_ELEMENT_THEORY":"SGP4","OBJECT_NAME":"STARLINK-2331","SITE":"AFETR","CENTER_NAME":"EARTH","SEMIMAJOR_AXIS":"6925.206","CLASSIFICATION_TYPE":"U","MEAN_MOTION_DOT":"0.00013088","ELEMENT_SET_NO":"999","PERIAPSIS":"546.177","REV_AT_EPOCH":"10780","PERIOD":"95.589","RA_OF_ASC_NODE":"232.7554","OBJECT_ID":"2021-021R","GP_ID":"226014524","BSTAR":"0.00089478000000","MEAN_ANOMALY":"279.8787","TIME_SYSTEM":"UTC","ARG_OF_PERICENTER":"80.2347","MEAN_MOTION":"15.06446633","EPOCH":"2023-02-19T15:30:06.879744","LAUNCH_DATE":"2021-03-14"},{"TLE_LINE1":"1 47876U 21021S   23050.96658811  .00010805  00000-0  74251-3 0  9998","OBJECT_TYPE":"PAYLOAD","TLE_LINE2":"2 47876  53.0529 231.3143 0001088  77.4977 282.6133 15.06433520107858","DECAY_DATE":null,"MEAN_ELEMENT_THEORY":"SGP4","INCLINATION":"53.0529","OBJECT_NAME":"STARLINK-2332","CENTER_NAME":"EARTH","SITE":"AFETR","SEMIMAJOR_AXIS":"6925.246","CLASSIFICATION_TYPE":"U","COUNTRY_CODE":"US","MEAN_MOTION_DDOT":"0.0000000000000","APOAPSIS":"547.864","ECCENTRICITY":"0.00010880","EPHEMERIS_TYPE":"0","FILE":"3813111","RCS_SIZE":"LARGE","NORAD_CAT_ID":"47876","REF_FRAME":"TEME","BSTAR":"0.00074251000000","MEAN_ANOMALY":"282.6133","TIME_SYSTEM":"UTC","ARG_OF_PERICENTER":"77.4977","MEAN_MOTION":"15.06433520","EPOCH":"2023-02-19T23:11:53.212704","LAUNCH_DATE":"2021-03-14","MEAN_MOTION_DOT":"0.00010805","PERIAPSIS":"546.357","REV_AT_EPOCH":"10785","ELEMENT_SET_NO":"999","PERIOD":"95.590","RA_OF_ASC_NODE":"231.3143","OBJECT_ID":"2021-021S","GP_ID":"226080456"},{"CENTER_NAME":"EARTH","SITE":"AFETR","CLASSIFICATION_TYPE":"U","SEMIMAJOR_AXIS":"6925.321","TLE_LINE2":"2 47877  53.0522 233.3357 0001185  96.2213 263.8911 15.06408977108259","DECAY_DATE":null,"TLE_LINE1":"1 47877U 21021T   23050.51690945  .00004043  00000-0  29011-3 0  9995","OBJECT_TYPE":"PAYLOAD","MEAN_ELEMENT_THEORY":"SGP4","INCLINATION":"53.0522","OBJECT_NAME":"STARLINK-2333","ECCENTRICITY":"0.00011850","APOAPSIS":"548.007","FILE":"3811610","RCS_SIZE":"LARGE","NORAD_CAT_ID":"47877","REF_FRAME":"TEME","EPHEMERIS_TYPE":"0","MEAN_MOTION_DDOT":"0.0000000000000","COUNTRY_CODE":"US","ARG_OF_PERICENTER":"96.2213","EPOCH":"2023-02-19T12:24:20.976480","LAUNCH_DATE":"2021-03-14","MEAN_MOTION":"15.06408977","BSTAR":"0.00029011000000","MEAN_ANOMALY":"263.8911","TIME_SYSTEM":"UTC","GP_ID":"226046022","MEAN_MOTION_DOT":"0.00004043","PERIAPSIS":"546.365","REV_AT_EPOCH":"10825","ELEMENT_SET_NO":"999","OBJECT_ID":"2021-021T","RA_OF_ASC_NODE":"233.3357","PERIOD":"95.592"},{"TLE_LINE2":"2 47878  53.0524 232.6888 0001038  89.8473 270.2635 15.06406258107801","DECAY_DATE":null,"OBJECT_TYPE":"PAYLOAD","TLE_LINE1":"1 47878U 21021U   23050.66066000  .00002742  00000-0  20285-3 0  9999","INCLINATION":"53.0524","MEAN_ELEMENT_THEORY":"SGP4","OBJECT_NAME":"STARLINK-2335","CENTER_NAME":"EARTH","SITE":"AFETR","CLASSIFICATION_TYPE":"U","SEMIMAJOR_AXIS":"6925.329","MEAN_MOTION_DDOT":"0.0000000000000","COUNTRY_CODE":"US","ECCENTRICITY":"0.00010380","APOAPSIS":"547.913","FILE":"3811187","RCS_SIZE":"LARGE","REF_FRAME":"TEME","NORAD_CAT_ID":"47878","EPHEMERIS_TYPE":"0","BSTAR":"0.00020285000000","MEAN_ANOMALY":"270.2635","TIME_SYSTEM":"UTC","ARG_OF_PERICENTER":"89.8473","EPOCH":"2023-02-19T15:51:21.024000","LAUNCH_DATE":"2021-03-14","MEAN_MOTION":"15.06406258","MEAN_MOTION_DOT":"0.00002742","ELEMENT_SET_NO":"999","PERIAPSIS":"546.476","REV_AT_EPOCH":"10780","OBJECT_ID":"2021-021U","PERIOD":"95.592","RA_OF_ASC_NODE":"232.6888","GP_ID":"226014527"},{"ECCENTRICITY":"0.00010420","APOAPSIS":"547.934","REF_FRAME":"TEME","NORAD_CAT_ID":"47879","RCS_SIZE":"LARGE","FILE":"3811610","EPHEMERIS_TYPE":"0","MEAN_MOTION_DDOT":"0.0000000000000","COUNTRY_CODE":"US","SITE":"AFETR","CENTER_NAME":"EARTH","CLASSIFICATION_TYPE":"U","SEMIMAJOR_AXIS":"6925.348","DECAY_DATE":null,"TLE_LINE2":"2 47879  53.0518 249.4928 0001042  98.8683 261.2424 15.06400224108189","TLE_LINE1":"1 47879U 21021V   23050.25937124  .00007591  00000-0  52792-3 0  9994","OBJECT_TYPE":"PAYLOAD","OBJECT_NAME":"STARLINK-2336","INCLINATION":"53.0518","MEAN_ELEMENT_THEORY":"SGP4","GP_ID":"226045022","REV_AT_EPOCH":"10818","PERIAPSIS":"546.491","ELEMENT_SET_NO":"999","MEAN_MOTION_DOT":"0.00007591","OBJECT_ID":"2021-021V","PERIOD":"95.592","RA_OF_ASC_NODE":"249.4928","ARG_OF_PERICENTER":"98.8683","LAUNCH_DATE":"2021-03-14","EPOCH":"2023-02-19T06:13:29.675136","MEAN_MOTION":"15.06400224","MEAN_ANOMALY":"261.2424","BSTAR":"0.00052792000000","TIME_SYSTEM":"UTC"},{"ARG_OF_PERICENTER":"95.6999","EPOCH":"2023-02-19T19:54:13.648896","LAUNCH_DATE":"2021-03-14","MEAN_MOTION":"15.06387837","BSTAR":"0.00012058000000","MEAN_ANOMALY":"264.4108","TIME_SYSTEM":"UTC","GP_ID":"226079429","MEAN_MOTION_DOT":"0.00001515","REV_AT_EPOCH":"10769","PERIAPSIS":"546.533","ELEMENT_SET_NO":"999","OBJECT_ID":"2021-021W","PERIOD":"95.593","RA_OF_ASC_NODE":"241.9342","CENTER_NAME":"EARTH","SITE":"AFETR","CLASSIFICATION_TYPE":"U","SEMIMAJOR_AXIS":"6925.386","TLE_LINE2":"2 47880  53.0518 241.9342 0001037  95.6999 264.4108 15.06387837107690","DECAY_DATE":null,"OBJECT_TYPE":"PAYLOAD","TLE_LINE1":"1 47880U 21021W   23050.82932464  .00001515  00000-0  12058-3 0  9992","INCLINATION":"53.0518","MEAN_ELEMENT_THEORY":"SGP4","OBJECT_NAME":"STARLINK-2337","ECCENTRICITY":"0.00010370","APOAPSIS":"547.969","FILE":"3813055","RCS_SIZE":"LARGE","NORAD_CAT_ID":"47880","REF_FRAME":"TEME","EPHEMERIS_TYPE":"0","MEAN_MOTION_DDOT":"0.0000000000000","COUNTRY_CODE":"US"},{"COUNTRY_CODE":"US","MEAN_MOTION_DDOT":"0.0000000000000","EPHEMERIS_TYPE":"0","FILE":"3811610","RCS_SIZE":"LARGE","REF_FRAME":"TEME","NORAD_CAT_ID":"47881","APOAPSIS":"548.030","ECCENTRICITY":"0.00011620","MEAN_ELEMENT_THEORY":"SGP4","INCLINATION":"53.0555","OBJECT_NAME":"STARLINK-2339","TLE_LINE1":"1 47881U 21021X   23050.25798950 -.00000034  00000-0  16609-4 0  9993","OBJECT_TYPE":"PAYLOAD","TLE_LINE2":"2 47881  53.0555 244.4868 0001162  86.1354 273.9768 15.06396122108046","DECAY_DATE":null,"SEMIMAJOR_AXIS":"6925.360","CLASSIFICATION_TYPE":"U","CENTER_NAME":"EARTH","SITE":"AFETR","RA_OF_ASC_NODE":"244.4868","PERIOD":"95.592","OBJECT_ID":"2021-021X","MEAN_MOTION_DOT":"-0.00000034","ELEMENT_SET_NO":"999","PERIAPSIS":"546.421","REV_AT_EPOCH":"10804","GP_ID":"226045523","TIME_SYSTEM":"UTC","BSTAR":"0.00001660900000","MEAN_ANOMALY":"273.9768","MEAN_MOTION":"15.06396122","EPOCH":"2023-02-19T06:11:30.292800","LAUNCH_DATE":"2021-03-14","ARG_OF_PERICENTER":"86.1354"},{"BSTAR":"0.00032110000000","MEAN_ANOMALY":"260.3173","TIME_SYSTEM":"UTC","ARG_OF_PERICENTER":"99.7956","MEAN_MOTION":"15.06394396","EPOCH":"2023-02-19T15:08:56.176800","LAUNCH_DATE":"2021-03-14","MEAN_MOTION_DOT":"0.00004504","PERIAPSIS":"546.371","REV_AT_EPOCH":"10780","ELEMENT_SET_NO":"999","PERIOD":"95.592","RA_OF_ASC_NODE":"232.8213","OBJECT_ID":"2021-021Y","GP_ID":"226014851","OBJECT_TYPE":"PAYLOAD","TLE_LINE1":"1 47882U 21021Y   23050.63120575  .00004504  00000-0  32110-3 0  9997","TLE_LINE2":"2 47882  53.0516 232.8213 0001242  99.7956 260.3173 15.06394396107800","DECAY_DATE":null,"INCLINATION":"53.0516","MEAN_ELEMENT_THEORY":"SGP4","OBJECT_NAME":"STARLINK-2340","SITE":"AFETR","CENTER_NAME":"EARTH","SEMIMAJOR_AXIS":"6925.366","CLASSIFICATION_TYPE":"U","COUNTRY_CODE":"US","MEAN_MOTION_DDOT":"0.0000000000000","APOAPSIS":"548.091","ECCENTRICITY":"0.00012420","EPHEMERIS_TYPE":"0","RCS_SIZE":"LARGE","FILE":"3811180","NORAD_CAT_ID":"47882","REF_FRAME":"TEME"},{"MEAN_MOTION":"15.06405018","EPOCH":"2023-02-19T12:52:53.414976","LAUNCH_DATE":"2021-03-14","ARG_OF_PERICENTER":"82.3448","TIME_SYSTEM":"UTC","BSTAR":"0.00023142000000","MEAN_ANOMALY":"277.7671","GP_ID":"226044523","PERIOD":"95.592","RA_OF_ASC_NODE":"238.2481","OBJECT_ID":"2021-021Z","MEAN_MOTION_DOT":"0.00003168","ELEMENT_SET_NO":"999","PERIAPSIS":"546.409","REV_AT_EPOCH":"10836","SEMIMAJOR_AXIS":"6925.333","CLASSIFICATION_TYPE":"U","CENTER_NAME":"EARTH","SITE":"AFETR","MEAN_ELEMENT_THEORY":"SGP4","INCLINATION":"53.0513","OBJECT_NAME":"STARLINK-2342","OBJECT_TYPE":"PAYLOAD","TLE_LINE1":"1 47883U 21021Z   23050.53672934  .00003168  00000-0  23142-3 0  9998","TLE_LINE2":"2 47883  53.0513 238.2481 0001140  82.3448 277.7671 15.06405018108367","DECAY_DATE":null,"EPHEMERIS_TYPE":"0","FILE":"3811610","RCS_SIZE":"LARGE","REF_FRAME":"TEME","NORAD_CAT_ID":"47883","APOAPSIS":"547.988","ECCENTRICITY":"0.00011400","COUNTRY_CODE":"US","MEAN_MOTION_DDOT":"0.0000000000000"}];
